{
    "links": {
        "self": "http://www.neowsapp.com/rest/v1/neo/3753694?api_key=iIulBulltgU6a56xZRHN4H3l9WmuAYTsLGpBGhQ2"
    },
    "id": "3753694",
    "neo_reference_id": "3753694",
    "name": "(2016 LQ1)",
    "designation": "2016 LQ1",
    "nasa_jpl_url": "http://ssd.jpl.nasa.gov/sbdb.cgi?sstr=3753694",
    "absolute_magnitude_h": 25.5,
    "estimated_diameter": {
        "kilometers": {
            "estimated_diameter_min": 0.0211132445,
            "estimated_diameter_max": 0.0472106499
        },
        "meters": {
            "estimated_diameter_min": 21.113244479,
            "estimated_diameter_max": 47.2106498806
        },
        "miles": {
            "estimated_diameter_min": 0.0131191578,
            "estimated_diameter_max": 0.0293353287
        },
        "feet": {
            "estimated_diameter_min": 69.2691770164,
            "estimated_diameter_max": 154.8905885541
        }
    },
    "is_potentially_hazardous_asteroid": false,
    "close_approach_data": [
        {
            "close_approach_date": "2016-06-06",
            "close_approach_date_full": "2016-Jun-06 23:32",
            "epoch_date_close_approach": 1465255920000,
            "relative_velocity": {
                "kilometers_per_second": "6.0268299633",
                "kilometers_per_hour": "21696.5878678087",
                "miles_per_hour": "13481.4159448615"
            },
            "miss_distance": {
                "astronomical": "0.0403733687",
                "lunar": "15.7052404243",
                "kilometers": "6039769.962244669",
                "miles": "3752939.0284436722"
            },
            "orbiting_body": "Earth"
        },
        {
            "close_approach_date": "2097-06-02",
            "close_approach_date_full": "2097-Jun-02 09:29",
            "epoch_date_close_approach": 4021003740000,
            "relative_velocity": {
                "kilometers_per_second": "6.8449263544",
                "kilometers_per_hour": "24641.7348756881",
                "miles_per_hour": "15311.415762063"
            },
            "miss_distance": {
                "astronomical": "0.0565819712",
                "lunar": "22.0103867968",
                "kilometers": "8464542.371921344",
                "miles": "5259622.7379647872"
            },
            "orbiting_body": "Earth"
        }
    ],
    "orbital_data": {
        "orbit_id": "5",
        "orbit_determination_date": "2017-04-06 08:25:35",
        "first_observation_date": "2016-06-03",
        "last_observation_date": "2016-06-15",
        "data_arc_in_days": 12,
        "observations_used": 26,
        "orbit_uncertainty": "7",
        "minimum_orbit_intersection": ".0385382",
        "jupiter_tisserand_invariant": "4.430",
        "epoch_osculation": "2459000.5",
        "eccentricity": ".329546518483349",
        "semi_major_axis": "1.525233105390411",
        "inclination": "4.854415255084241",
        "ascending_node_longitude": "238.9739936645219",
        "orbital_period": "688.02269107169",
        "perihelion_distance": "1.022597845633454",
        "perihelion_argument": "41.00751001694106",
        "aphelion_distance": "2.027868365147369",
        "perihelion_time": "2458943.703002621748",
        "mean_anomaly": "29.71837894520892",
        "mean_motion": ".5232385569133635",
        "equinox": "J2000",
        "orbit_class": {
            "orbit_class_type": "AMO",
            "orbit_class_description": "Near-Earth asteroid orbits similar to that of 1221 Amor",
            "orbit_class_range": "1.017 AU < q (perihelion) < 1.3 AU"
        }
    },
    "is_sentry_object": false
}